WGS F2 (USA 204)
1 34713U 09017A   22146.63391322  .00000067  00000+0  00000+0 0  9990
2 34713   0.0143 307.0914 0000406 350.8984 231.9067  1.00272639 30752
RISAT 2
1 34807U 09019A   22147.06660014  .00080825  00000+0  10201-2 0  9998
2 34807  41.2111  35.7111 0018434 245.3393 252.2884 15.58356655736456
YAOGAN 6
1 34839U 09021A   22146.41614284  .00006103  00000+0  21440-3 0  9997
2 34839  97.0797 127.6371 0026867  20.5936 339.6381 15.29383692727860
SES-7 (PROTOSTAR 2)
1 34941U 09027A   22146.82147014 -.00000345  00000+0  00000+0 0  9992
2 34941   0.0569  94.4038 0000438 165.9656  27.9407  1.00269957 47755
MEASAT-3A
1 35362U 09032A   22147.04771765 -.00000241  00000+0  00000+0 0  9992
2 35362   0.0434 153.8687 0001010 354.9302 204.4674  1.00272058 47371
GOES 14
1 35491U 09033A   22146.59956687 -.00000092  00000+0  00000+0 0  9997
2 35491   0.2705  95.1235 0011722 119.0361 141.2746  1.00271085 47243
FM-5
1 35493U 09034A   22146.60323002 -.00000200  00000+0  00000+0 0  9992
2 35493   0.0094 316.9212 0000640  90.5634 327.6624  1.00271274 31772
TERRESTAR-1
1 35496U 09035A   22146.59825859 -.00000057  00000+0  00000+0 0  9991
2 35496   3.1703  38.1372 0002941  21.2342 289.1311  1.00271942 47267
COSMOS 2451
1 35498U 09036A   22146.80517583  .00000022  00000+0  90982-4 0  9994
2 35498  82.4867 292.1258 0007206 183.0360 177.0673 12.40829106583854
COSMOS 2453
1 35500U 09036C   22146.74622469  .00000031  00000+0  15624-3 0  9990
2 35500  82.4861 288.7899 0007777 146.8457 213.3121 12.41473453584158
DEIMOS-1
1 35681U 09041A   22147.05258050  .00000639  00000+0  10906-3 0  9994
2 35681  97.7162 359.2296 0000759   6.8223 353.3002 14.72044847688622
DUBAISAT-1
1 35682U 09041B   22146.98568152  .00001078  00000+0  19092-3 0  9996
2 35682  97.8006 301.1960 0011998 134.3516 225.8674 14.69170801687133
UK-DMC 2
1 35683U 09041C   22147.00096179  .00000755  00000+0  12939-3 0  9990
2 35683  97.6956 321.2477 0001320  74.4384 285.6966 14.71397546688350
APRIZESAT 4
1 35684U 09041D   22145.58055075  .00001025  00000+0  14183-3 0  9996
2 35684  98.3111 158.4441 0048142  65.8986 294.7250 14.79622311691684
NANOSAT 1B
1 35685U 09041E   22147.15245571  .00000956  00000+0  11646-3 0  9997
2 35685  98.1657 209.7438 0057477 331.8780  27.9332 14.84788108694013
APRIZESAT 3
1 35686U 09041F   22146.50878827  .00001012  00000+0  11239-3 0  9994
2 35686  98.1059 232.7053 0070808 257.8346 101.4932 14.87879317695344
ASIASAT 5
1 35696U 09042A   22147.04216042 -.00000306  00000+0  00000+0 0  9997
2 35696   0.0249 290.1533 0001559 123.0656 307.0347  1.00269261 46812
NAVSTAR 64 (USA 206)
1 35752U 09043A   22146.58188369 -.00000052  00000+0  00000+0 0  9997
2 35752  55.0555  86.4077 0058064  57.7048 113.2691  2.00557399 93628
JCSAT-12 (JCSAT-RA)
1 35755U 09044A   22146.57493623 -.00000329  00000+0  00000+0 0  9999
2 35755   0.0112 241.1597 0000809  90.1179 251.8742  1.00272278 46743
OPTUS D3
1 35756U 09044B   22146.57973323 -.00000148  00000+0  00000+0 0  9999
2 35756   0.0461  42.5086 0003863   7.9409 198.3771  1.00272049 46699
METEOR-M 1
1 35865U 09049A   22146.51816897  .00000128  00000+0  76560-4 0  9997
2 35865  98.5263 117.6984 0001298 313.3271  46.7799 14.22334082658424
NIMIQ 5
1 35873U 09050A   22146.60584657 -.00000257  00000+0  00000+0 0  9999
2 35873   0.0337  89.2915 0003315   3.1219 297.1292  1.00270808 46483
OCEANSAT-2
1 35931U 09051A   22147.12993510 -.00058313  00000+0 -16663-1 0  9996
2 35931  98.2969 242.3056 0008915 189.1613 170.9228 14.45531981671127
SWISSCUBE
1 35932U 09051B   22146.81025273  .00000816  00000+0  19305-3 0  9995
2 35932  98.5713   2.1424 0008669 110.3335 249.8794 14.56839230672947
BEESAT-1
1 35933U 09051C   22146.83425107  .00000695  00000+0  16602-3 0  9990
2 35933  98.5655   3.8112 0006732 119.9776 240.2090 14.56858648673026
ITUPSAT1
1 35935U 09051E   22146.83847944  .00000631  00000+0  15457-3 0  9996
2 35935  98.5757   3.8771 0008995 124.4040 235.8008 14.55969638672737
AMAZONAS 2
1 35942U 09054A   22145.96237791 -.00000285  00000+0  00000+0 0  9993
2 35942   0.0121 116.6223 0004817 347.2220  65.1229  1.00265388 46312
COMSATBW-1
1 35943U 09054B   22146.86507605  .00000024  00000+0  00000+0 0  9998
2 35943   0.0702  98.5167 0003203 344.8169 175.4927  1.00272763 46445
WORLDVIEW-2 (WV-2)
1 35946U 09055A   22147.04815592  .00000178  00000+0  73699-4 0  9999
2 35946  98.4866 222.4623 0002129  85.1252 275.0183 14.37667693662831
DMSP 5D-3 F18 (USA 210)
1 35951U 09057A   22147.16891669  .00000255  00000+0  15807-3 0  9991
2 35951  98.7209 127.0818 0011737 142.3732 217.8264 14.13501284650109
NSS-12
1 36032U 09058A   22146.81924170  .00000072  00000+0  00000+0 0  9990
2 36032   0.0557  94.1060 0002719 334.1673 168.0070  1.00270364 46059
THOR 6
1 36033U 09058B   22146.73452113 -.00000010  00000+0  00000+0 0  9998
2 36033   0.0146  78.9599 0001831  10.3835  58.4983  1.00270017 46148
SMOS
1 36036U 09059A   22146.76525375  .00000287  00000+0  10561-3 0  9998
2 36036  98.4439 334.6028 0001209  92.6089 267.5238 14.39740163660147
PROBA-2
1 36037U 09059B   22146.05322784  .00000260  00000+0  73283-4 0  9992
2 36037  98.2239 333.0768 0013540 172.8174 187.3218 14.53257540666001
SJ-11-01
1 36088U 09061A   22147.08574752  .00000809  00000+0  17633-3 0  9994
2 36088  97.9316 163.0673 0012183  17.7162 342.4463 14.60374395668027
COSMOS 2455
1 36095U 09063A   22146.58089647 -.00000040  00000+0  25565-4 0  9994
2 36095  67.1479 257.7758 0006039 243.0486 116.9982 13.96790987638052
INTELSAT 14 (IS-14)
1 36097U 09064A   22147.11493792 -.00000272  00000+0  00000+0 0  9996
2 36097   0.0189 310.2644 0002495 119.4041 171.3790  1.00271553 45837
EUTELSAT 36B
1 36101U 09065A   22146.90841352  .00000156  00000+0  00000+0 0  9998
2 36101   0.0685 355.6752 0005062  70.5036 181.1930  1.00269131 45857
INTELSAT 15 (IS-15)
1 36106U 09067A   22145.77624045 -.00000188  00000+0  00000+0 0  9993
2 36106   0.0142   7.8007 0002265  59.6722 180.4447  1.00270996 45723
WGS F3 (USA 211)
1 36108U 09068A   22146.65377674 -.00000189  00000+0  00000+0 0  9998
2 36108   0.1702  94.7747 0000494  97.1752  13.3186  1.00261336 45649
YAOGAN 7
1 36110U 09069A   22147.10477426  .00000719  00000+0  11397-3 0  9992
2 36110  98.2017   6.5431 0026389 114.3854 246.0113 14.75118154670998
COSMOS 2456 [GLONASS-M]
1 36111U 09070A   22146.73249609  .00000047  00000+0  00000+0 0  9992
2 36111  64.3485 121.8000 0006236 303.5538 268.9798  2.13099288 96871
COSMOS 2457 [GLONASS-M]
1 36112U 09070B   22146.52367079  .00000049  00000+0  00000+0 0  9994
2 36112  64.3318 121.6836 0004070 199.5566 339.8906  2.13101450 96874
WISE
1 36119U 09071A   22146.59979936  .00007734  00000+0  24204-3 0  9994
2 36119  97.2411 181.4609 0003359  54.6357 305.5199 15.33384321692153
YAOGAN 8
1 36121U 09072A   22146.82818490 -.00000013  00000+0  88876-4 0  9991
2 36121 100.2678  81.6561 0021803  56.3278 303.9904 13.04976985595314
XIWANG-1 (HOPE-1)
1 36122U 09072B   22146.76230378 -.00000050  00000+0 -18501-4 0  9998
2 36122 100.1813 118.9202 0007939  35.7335 324.4309 13.16369124597953
HELIOS 2B
1 36124U 09073A   22147.01043703  .00014184  00000+0  30161-3 0  9990
2 36124  98.1625  90.3625 0188800 208.0888 151.0035 15.28306721664874
DIRECTV 12
1 36131U 09075A   22146.59991573 -.00000104  00000+0  00000+0 0  9992
2 36131   0.0464 139.7393 0000271 253.5594 324.1051  1.00274163 31697
BEIDOU 3
1 36287U 10001A   22146.04557215 -.00000285  00000+0  00000+0 0  9996
2 36287   1.8470  46.6059 0004707  19.7483 333.9868  1.00267104 45288
RADUGA-1M 2
1 36358U 10002A   22146.86972944 -.00000184  00000+0  00000+0 0  9994
2 36358   0.0687 264.9395 0001724 193.2970 184.2560  1.00273723 35224
SDO
1 36395U 10005A   22146.43188312 -.00000050  00000+0  00000+0 0  9991
2 36395  31.6155 109.5748 0001704 261.4381 286.5875  1.00271911 45192
INTELSAT 16 (IS-16)
1 36397U 10006A   22146.53799420 -.00000246  00000+0  00000+0 0  9990
2 36397   0.0140  18.1652 0001844  56.3825 287.0173  1.00277573 44787
COSMOS 2461 [GLONASS-M]
1 36401U 10007B   22146.21398696 -.00000068  00000+0  00000+0 0  9994
2 36401  65.9688   4.2497 0021713  11.0328 325.8128  2.13103808 95215
COSMOS 2460 [GLONASS-M]
1 36402U 10007C   22146.76303078 -.00000067  00000+0  00000+0 0  9994
2 36402  65.9548   4.1818 0002595  57.7032 288.5551  2.13106289 95225
GOES 15
1 36411U 10008A   22146.60535493  .00000054  00000+0  00000+0 0  9991
2 36411   0.2424 103.6510 0001710 339.6532 250.9221  1.00262080 44801
YAOGAN 9A
1 36413U 10009A   22147.15606343 -.00000060  00000+0  31815-4 0  9999
2 36413  63.3823 225.5940 0409133  11.9342   5.3805 13.45222794600726
YAOGAN 9B
1 36414U 10009B   22146.92095112 -.00000051  00000+0  40369-4 0  9994
2 36414  63.3824 225.7705 0408747  11.3216 349.6671 13.45234280600710
YAOGAN 9C
1 36415U 10009C   22146.92021428 -.00000032  00000+0  59948-4 0  9996
2 36415  63.3833 226.4006 0409592  11.6167 349.3968 13.45235916600689
ECHOSTAR 14
1 36499U 10010A   22146.59979760  .00000000  00000+0  00000+0 0  9998
2 36499   0.0189 299.7541 0002551 125.2542 276.1605  1.00267972 31681
CRYOSAT 2
1 36508U 10013A   22147.16483181  .00000416  00000+0  10260-3 0  9997
2 36508  92.0329 278.9035 0004309 346.3297  13.7792 14.51899554643084
SES-1
1 36516U 10016A   22146.60026461 -.00000115  00000+0  00000+0 0  9995
2 36516   0.0225 305.9266 0002718 120.7597 292.5481  1.00271233 44178
COSMOS 2463
1 36519U 10017A   22146.85743580  .00000038  00000+0  26335-4 0  9991
2 36519  82.9609 258.6561 0034814 283.2139 226.4248 13.71474274604739
ASTRA 3B
1 36581U 10021A   22146.78908685  .00000137  00000+0  00000+0 0  9992
2 36581   0.0606  51.7347 0003100   1.5898 138.5969  1.00271053 44018
COMSATBW-2
1 36582U 10021B   22147.06646601  .00000089  00000+0  00000+0 0  9998
2 36582   0.0478 109.6436 0002460 333.6553 198.3962  1.00270912 44125
NAVSTAR 65 (USA 213)
1 36585U 10022A   22146.23572481 -.00000070  00000+0  00000+0 0  9995
2 36585  54.8160 268.4149 0103196  56.8568 340.5658  2.00564135 87850
